GLOBALSTAR M024         
1 25883U 99043A   24164.69964543 -.00000091  00000+0 -92589-3 0  9991
2 25883  51.9982 134.3071 0001372 235.2439 295.7043 11.10156498 73828
GLOBALSTAR M027         
1 25884U 99043B   24164.39028980 -.00000066  00000+0 -76097-4 0  9994
2 25884  52.0178 202.5132 0021224 115.1870 245.1127 11.04368843100383
GLOBALSTAR M054         
1 25885U 99043C   24165.10655817 -.00000070  00000+0  33966-4 0  9992
2 25885  52.0167  30.1528 0004180 272.3674 257.5066 11.39203405 77311
GLOBALSTAR M053         
1 25886U 99043D   24165.17146222 -.00000051  00000+0  52449-3 0  9990
2 25886  52.0003 316.6206 0003945 166.0690   4.4037 11.27655794 77957
GLOBALSTAR M058         
1 25907U 99049A   24164.96214768 -.00000049  00000+0  47242-3 0  9999
2 25907  51.9968  15.0866 0001630 298.7918  61.2753 11.93182515108675
GLOBALSTAR M050         
1 25908U 99049B   24164.84722331 -.00000073  00000+0  17290-3 0  9994
2 25908  52.0010  50.6615 0009656  19.0573  59.6207 12.07434910103574
GLOBALSTAR M033         
1 25909U 99049C   24165.10027367 -.00000094  00000+0 -27159-4 0  9992
2 25909  51.9927 307.2965 0011998 225.0212 134.9663 12.20273413123401
GLOBALSTAR M055         
1 25910U 99049D   24164.74266727 -.00000065  00000+0  25139-3 0  9990
2 25910  52.0039 337.0283 0007877  86.2674 273.9079 12.29402726122845
